COSMOS 2433 (720)       
1 32275U 07052A   22124.13934418 -.00000078  00000+0  00000+0 0  9991
2 32275  66.0829   6.1405 0001617 298.3712 166.0777  2.13104053113025
COSMOS 2432 (719)       
1 32276U 07052B   22124.78687228 -.00000077  00000+0  00000+0 0  9996
2 32276  66.0966   6.2190 0010983 337.7621 211.8936  2.13103387113039
COSMOS 2434 (721)       
1 32393U 07065A   22124.70175168  .00000010  00000+0  00000+0 0  9993
2 32393  64.3912 242.9191 0003578  86.1435 339.1731  2.13103054111745
COSMOS 2436 (723)       
1 32395U 07065C   22124.54646405  .00000010  00000+0  00000+0 0  9994
2 32395  64.4017 242.9799 0015536   4.4560  77.6350  2.13102969111674
COSMOS 2456 (730)       
1 36111U 09070A   22124.40025341  .00000045  00000+0  00000+0 0  9995
2 36111  64.3422 122.5669 0006300 301.7402  58.4575  2.13099159 96404
COSMOS 2457 (733)       
1 36112U 09070B   22124.01129181  .00000043  00000+0  00000+0 0  9998
2 36112  64.3249 122.4572 0004286 199.6225 349.1213  2.13101388 96397
COSMOS 2461 (735)       
1 36401U 10007B   22124.43085198 -.00000078  00000+0  00000+0 0  9995
2 36401  65.9696   4.9738 0021997   9.0715 176.4868  2.13103717 94758
COSMOS 2460 (732)       
1 36402U 10007C   22124.02861631 -.00000078  00000+0  00000+0 0  9995
2 36402  65.9567   4.9397 0002188  29.6175 155.3567  2.13106366 94740
COSMOS 2464 (736)       
1 37139U 10041C   22124.43528818  .00000010  00000+0  00000+0 0  9998
2 37139  63.9930 242.0251 0029171  12.5996  66.8516  2.13100701 90818
COSMOS 2476 (744)       
1 37867U 11064A   22124.58338470  .00000048  00000+0  00000+0 0  9992
2 37867  64.6317 123.8997 0023193 241.4072 164.4228  2.13101830 81754
COSMOS 2477 (745)       
1 37868U 11064B   22124.46236608  .00000047  00000+0  00000+0 0  9999
2 37868  64.6394 123.9681 0020646 242.7603 248.3630  2.13101671 81702
COSMOS 2475 (743)       
1 37869U 11064C   22124.08299803  .00000045  00000+0  00000+0 0  9992
2 37869  64.6469 123.9886 0025232 258.7407 259.3049  2.13101893 81700
COSMOS 2485 (747)       
1 39155U 13019A   22124.46761350  .00000048  00000+0  00000+0 0  9990
2 39155  64.7956 124.3223 0023538 237.4766 123.9294  2.13101884 70224
COSMOS 2492 (754)       
1 39620U 14012A   22124.12812744 -.00000078  00000+0  00000+0 0  9992
2 39620  65.8428   4.6238 0013934 331.3453 164.1452  2.13103192 63161
COSMOS 2500 (755)       
1 40001U 14032A   22124.37516255 -.00000078  00000+0  00000+0 0  9994
2 40001  65.7813   4.4799 0004212 199.5304 344.2612  2.13102429 61384
COSMOS 2501 (702K)      
1 40315U 14075A   22124.47774803  .00000009  00000+0  00000+0 0  9998
2 40315  63.7002 242.7081 0017418 206.5536 223.7037  2.13101432 57794
COSMOS 2514 (751)       
1 41330U 16008A   22123.89608398 -.00000078  00000+0  00000+0 0  9991
2 41330  65.5823   4.1987 0007797 208.8499 151.1617  2.13102965 48543
COSMOS 2516 (753)       
1 41554U 16032A   22124.09707370  .00000009  00000+0  00000+0 0  9992
2 41554  63.9264 242.9853 0013491 213.0153 203.0050  2.13106123 46152
COSMOS 2522 (752)       
1 42939U 17055A   22124.52775809  .00000010  00000+0  00000+0 0  9998
2 42939  64.1596 243.3532 0006343 238.6392   5.3416  2.13101887 35919
COSMOS 2527 (756)       
1 43508U 18053A   22124.41375251  .00000047  00000+0  00000+0 0  9995
2 43508  64.9590 124.3149 0009778 243.0410 305.5897  2.13102522 30204
COSMOS 2529 (757)       
1 43687U 18086A   22124.35502797  .00000010  00000+0  00000+0 0  9999
2 43687  64.3735 243.6616 0008185 268.1631 158.8231  2.13102091 27225
COSMOS 2534 (758)       
1 44299U 19030A   22124.70474023  .00000010  00000+0  00000+0 0  9998
2 44299  64.4465 243.5317 0011191 290.0557 179.8156  2.13101997 22874
COSMOS 2544 (759)       
1 44850U 19088A   22124.24274853  .00000046  00000+0  00000+0 0  9991
2 44850  64.9448 124.1738 0014690 263.8520 197.0935  2.13102297 18639
COSMOS 2545 (760)       
1 45358U 20018A   22123.93510763 -.00000080  00000+0  00000+0 0  9997
2 45358  64.9207   4.8429 0007494 259.2630 175.2057  2.13102671 16583
COSMOS 2547 (705K)      
1 46805U 20075A   22124.50716164  .00000011  00000+0  00000+0 0  9998
2 46805  64.6699 242.9498 0006181 243.3119 122.5176  2.13103138 11842
